ONEWEB-0615             
1 54676U 22166AL  25325.38902338 -.00000007  00000+0 -49269-4 0  9990
2 54676  87.9194 285.4385 0001889  83.9273 276.2076 13.21824379143997
ONEWEB-0655             
1 54677U 22166AM  25325.44002882  .00000035  00000+0  53472-4 0  9993
2 54677  87.9190 285.4330 0001996  90.7436 269.3927 13.21823058143991
ONEWEB-0659             
1 54678U 22166AN  25325.45648118 -.00000091  00000+0 -25078-3 0  9997
2 54678  87.9190 285.4296 0001873  79.4587 280.6757 13.21827302144082
ONEWEB-0685             
1 54679U 22166AP  25325.38140106 -.00000015  00000+0 -68346-4 0  9996
2 54679  87.9191 285.4407 0001643  89.3505 270.7818 13.21833751143962
ONEWEB-0712             
1 54680U 22166AQ  25325.28432365  .00000120  00000+0  28023-3 0  9990
2 54680  87.9024 270.1716 0002220  91.8527 268.2858 13.16593132144706
ONEWEB-0714             
1 54681U 22166AR  25325.46307363  .00000081  00000+0  16519-3 0  9993
2 54681  87.9192 285.4182 0001847  88.9472 271.1873 13.21824086144092
ONEWEB-0532             
1 55140U 23004A   25325.27197600  .00000042  00000+0  75126-4 0  9993
2 55140  87.9139  47.2024 0001329 100.6871 259.4410 13.17647138140204
ONEWEB-0533             
1 55141U 23004B   25325.25374109  .00000482  00000+0  13043-2 0  9999
2 55141  87.8968  31.9724 0001830 107.0233 253.1096 13.12442447140786
ONEWEB-0541             
1 55142U 23004C   25325.27360218  .00000431  00000+0  11796-2 0  9995
2 55142  87.8870  62.4504 0001598  98.7274 261.4035 13.11415565138698
ONEWEB-0543             
1 55143U 23004D   25325.56570198 -.00000223  00000+0 -59967-3 0  9992
2 55143  87.9188  16.7371 0002091 101.5217 258.6149 13.18685801142334
ONEWEB-0544             
1 55144U 23004E   25325.55912469  .00000074  00000+0  15561-3 0  9997
2 55144  87.9192  16.7280 0002015  93.2252 266.9110 13.18686337142336
ONEWEB-0560             
1 55145U 23004F   25325.55250726 -.00000301  00000+0 -79563-3 0  9996
2 55145  87.9196  16.7153 0002114  94.4342 265.7031 13.18685711142348
ONEWEB-0565             
1 55146U 23004G   25325.54590961  .00000069  00000+0  14321-3 0  9994
2 55146  87.9185  16.7641 0001825  82.1119 278.0220 13.18684231142335
ONEWEB-0567             
1 55147U 23004H   25325.15992971  .00000105  00000+0  23470-3 0  9995
2 55147  87.9197  16.8061 0002011  86.8121 273.3241 13.18684714142289
ONEWEB-0569             
1 55148U 23004J   25325.57653907 -.00000008  00000+0 -57599-4 0  9999
2 55148  87.9008   1.4724 0002568  80.8183 279.3236 13.13469023142926
ONEWEB-0570             
1 55149U 23004K   25325.22592490 -.00000002  00000+0 -36653-4 0  9993
2 55149  87.9197  16.7931 0001355  88.7442 271.3846 13.18686787142284
ONEWEB-0571             
1 55150U 23004L   25325.21932749  .00000051  00000+0  96087-4 0  9998
2 55150  87.9190  16.7949 0002358  66.9401 293.1980 13.18686227142296
