[{"OBJECT_NAME":"ONEWEB-0615","OBJECT_ID":"2022-166AL","EPOCH":"2025-11-21T09:20:11.620032","MEAN_MOTION":13.21824379,"ECCENTRICITY":0.0001889,"INCLINATION":87.9194,"RA_OF_ASC_NODE":285.4385,"ARG_OF_PERICENTER":83.9273,"MEAN_ANOMALY":276.2076,"EPHEMERIS_TYPE":0,"CLASSIFICATION_TYPE":"U","NORAD_CAT_ID":54676,"ELEMENT_SET_NO":999,"REV_AT_EPOCH":14399,"BSTAR":-4.9269e-5,"MEAN_MOTION_DOT":-7.0e-8,"MEAN_MOTION_DDOT":0},{"OBJECT_NAME":"ONEWEB-0655","OBJECT_ID":"2022-166AM","EPOCH":"2025-11-21T10:33:38.490048","MEAN_MOTION":13.21823058,"ECCENTRICITY":0.0001996,"INCLINATION":87.919,"RA_OF_ASC_NODE":285.433,"ARG_OF_PERICENTER":90.7436,"MEAN_ANOMALY":269.3927,"EPHEMERIS_TYPE":0,"CLASSIFICATION_TYPE":"U","NORAD_CAT_ID":54677,"ELEMENT_SET_NO":999,"REV_AT_EPOCH":14399,"BSTAR":5.3472e-5,"MEAN_MOTION_DOT":3.5e-7,"MEAN_MOTION_DDOT":0},{"OBJECT_NAME":"ONEWEB-0659","OBJECT_ID":"2022-166AN","EPOCH":"2025-11-21T10:57:19.973952","MEAN_MOTION":13.21827302,"ECCENTRICITY":0.0001873,"INCLINATION":87.919,"RA_OF_ASC_NODE":285.4296,"ARG_OF_PERICENTER":79.4587,"MEAN_ANOMALY":280.6757,"EPHEMERIS_TYPE":0,"CLASSIFICATION_TYPE":"U","NORAD_CAT_ID":54678,"ELEMENT_SET_NO":999,"REV_AT_EPOCH":14408,"BSTAR":-0.00025078,"MEAN_MOTION_DOT":-9.1e-7,"MEAN_MOTION_DDOT":0},{"OBJECT_NAME":"ONEWEB-0685","OBJECT_ID":"2022-166AP","EPOCH":"2025-11-21T09:09:13.051584","MEAN_MOTION":13.21833751,"ECCENTRICITY":0.0001643,"INCLINATION":87.9191,"RA_OF_ASC_NODE":285.4407,"ARG_OF_PERICENTER":89.3505,"MEAN_ANOMALY":270.7818,"EPHEMERIS_TYPE":0,"CLASSIFICATION_TYPE":"U","NORAD_CAT_ID":54679,"ELEMENT_SET_NO":999,"REV_AT_EPOCH":14396,"BSTAR":-6.8346e-5,"MEAN_MOTION_DOT":-1.5e-7,"MEAN_MOTION_DDOT":0},{"OBJECT_NAME":"ONEWEB-0712","OBJECT_ID":"2022-166AQ","EPOCH":"2025-11-21T06:49:25.563360","MEAN_MOTION":13.16593132,"ECCENTRICITY":0.000222,"INCLINATION":87.9024,"RA_OF_ASC_NODE":270.1716,"ARG_OF_PERICENTER":91.8527,"MEAN_ANOMALY":268.2858,"EPHEMERIS_TYPE":0,"CLASSIFICATION_TYPE":"U","NORAD_CAT_ID":54680,"ELEMENT_SET_NO":999,"REV_AT_EPOCH":14470,"BSTAR":0.00028023,"MEAN_MOTION_DOT":1.2e-6,"MEAN_MOTION_DDOT":0},{"OBJECT_NAME":"ONEWEB-0714","OBJECT_ID":"2022-166AR","EPOCH":"2025-11-21T11:06:49.561632","MEAN_MOTION":13.21824086,"ECCENTRICITY":0.0001847,"INCLINATION":87.9192,"RA_OF_ASC_NODE":285.4182,"ARG_OF_PERICENTER":88.9472,"MEAN_ANOMALY":271.1873,"EPHEMERIS_TYPE":0,"CLASSIFICATION_TYPE":"U","NORAD_CAT_ID":54681,"ELEMENT_SET_NO":999,"REV_AT_EPOCH":14409,"BSTAR":0.00016519,"MEAN_MOTION_DOT":8.1e-7,"MEAN_MOTION_DDOT":0},{"OBJECT_NAME":"ONEWEB-0532","OBJECT_ID":"2023-004A","EPOCH":"2025-11-21T06:31:38.726400","MEAN_MOTION":13.17647138,"ECCENTRICITY":0.0001329,"INCLINATION":87.9139,"RA_OF_ASC_NODE":47.2024,"ARG_OF_PERICENTER":100.6871,"MEAN_ANOMALY":259.441,"EPHEMERIS_TYPE":0,"CLASSIFICATION_TYPE":"U","NORAD_CAT_ID":55140,"ELEMENT_SET_NO":999,"REV_AT_EPOCH":14020,"BSTAR":7.5126e-5,"MEAN_MOTION_DOT":4.2e-7,"MEAN_MOTION_DDOT":0},{"OBJECT_NAME":"ONEWEB-0533","OBJECT_ID":"2023-004B","EPOCH":"2025-11-21T06:05:23.230176","MEAN_MOTION":13.12442447,"ECCENTRICITY":0.000183,"INCLINATION":87.8968,"RA_OF_ASC_NODE":31.9724,"ARG_OF_PERICENTER":107.0233,"MEAN_ANOMALY":253.1096,"EPHEMERIS_TYPE":0,"CLASSIFICATION_TYPE":"U","NORAD_CAT_ID":55141,"ELEMENT_SET_NO":999,"REV_AT_EPOCH":14078,"BSTAR":0.0013043,"MEAN_MOTION_DOT":4.82e-6,"MEAN_MOTION_DDOT":0},{"OBJECT_NAME":"ONEWEB-0541","OBJECT_ID":"2023-004C","EPOCH":"2025-11-21T06:33:59.228352","MEAN_MOTION":13.11415565,"ECCENTRICITY":0.0001598,"INCLINATION":87.887,"RA_OF_ASC_NODE":62.4504,"ARG_OF_PERICENTER":98.7274,"MEAN_ANOMALY":261.4035,"EPHEMERIS_TYPE":0,"CLASSIFICATION_TYPE":"U","NORAD_CAT_ID":55142,"ELEMENT_SET_NO":999,"REV_AT_EPOCH":13869,"BSTAR":0.0011796,"MEAN_MOTION_DOT":4.31e-6,"MEAN_MOTION_DDOT":0},{"OBJECT_NAME":"ONEWEB-0543","OBJECT_ID":"2023-004D","EPOCH":"2025-11-21T13:34:36.651072","MEAN_MOTION":13.18685801,"ECCENTRICITY":0.0002091,"INCLINATION":87.9188,"RA_OF_ASC_NODE":16.7371,"ARG_OF_PERICENTER":101.5217,"MEAN_ANOMALY":258.6149,"EPHEMERIS_TYPE":0,"CLASSIFICATION_TYPE":"U","NORAD_CAT_ID":55143,"ELEMENT_SET_NO":999,"REV_AT_EPOCH":14233,"BSTAR":-0.00059967,"MEAN_MOTION_DOT":-2.23e-6,"MEAN_MOTION_DDOT":0},{"OBJECT_NAME":"ONEWEB-0544","OBJECT_ID":"2023-004E","EPOCH":"2025-11-21T13:25:08.373216","MEAN_MOTION":13.18686337,"ECCENTRICITY":0.0002015,"INCLINATION":87.9192,"RA_OF_ASC_NODE":16.728,"ARG_OF_PERICENTER":93.2252,"MEAN_ANOMALY":266.911,"EPHEMERIS_TYPE":0,"CLASSIFICATION_TYPE":"U","NORAD_CAT_ID":55144,"ELEMENT_SET_NO":999,"REV_AT_EPOCH":14233,"BSTAR":0.00015561,"MEAN_MOTION_DOT":7.4e-7,"MEAN_MOTION_DDOT":0},{"OBJECT_NAME":"ONEWEB-0560","OBJECT_ID":"2023-004F","EPOCH":"2025-11-21T13:15:36.627264","MEAN_MOTION":13.18685711,"ECCENTRICITY":0.0002114,"INCLINATION":87.9196,"RA_OF_ASC_NODE":16.7153,"ARG_OF_PERICENTER":94.4342,"MEAN_ANOMALY":265.7031,"EPHEMERIS_TYPE":0,"CLASSIFICATION_TYPE":"U","NORAD_CAT_ID":55145,"ELEMENT_SET_NO":999,"REV_AT_EPOCH":14234,"BSTAR":-0.00079563,"MEAN_MOTION_DOT":-3.01e-6,"MEAN_MOTION_DDOT":0},{"OBJECT_NAME":"ONEWEB-0565","OBJECT_ID":"2023-004G","EPOCH":"2025-11-21T13:06:06.590304","MEAN_MOTION":13.18684231,"ECCENTRICITY":0.0001825,"INCLINATION":87.9185,"RA_OF_ASC_NODE":16.7641,"ARG_OF_PERICENTER":82.1119,"MEAN_ANOMALY":278.022,"EPHEMERIS_TYPE":0,"CLASSIFICATION_TYPE":"U","NORAD_CAT_ID":55146,"ELEMENT_SET_NO":999,"REV_AT_EPOCH":14233,"BSTAR":0.00014321,"MEAN_MOTION_DOT":6.9e-7,"MEAN_MOTION_DDOT":0},{"OBJECT_NAME":"ONEWEB-0567","OBJECT_ID":"2023-004H","EPOCH":"2025-11-21T03:50:17.926944","MEAN_MOTION":13.18684714,"ECCENTRICITY":0.0002011,"INCLINATION":87.9197,"RA_OF_ASC_NODE":16.8061,"ARG_OF_PERICENTER":86.8121,"MEAN_ANOMALY":273.3241,"EPHEMERIS_TYPE":0,"CLASSIFICATION_TYPE":"U","NORAD_CAT_ID":55147,"ELEMENT_SET_NO":999,"REV_AT_EPOCH":14228,"BSTAR":0.0002347,"MEAN_MOTION_DOT":1.05e-6,"MEAN_MOTION_DDOT":0},{"OBJECT_NAME":"ONEWEB-0569","OBJECT_ID":"2023-004J","EPOCH":"2025-11-21T13:50:12.975648","MEAN_MOTION":13.13469023,"ECCENTRICITY":0.0002568,"INCLINATION":87.9008,"RA_OF_ASC_NODE":1.4724,"ARG_OF_PERICENTER":80.8183,"MEAN_ANOMALY":279.3236,"EPHEMERIS_TYPE":0,"CLASSIFICATION_TYPE":"U","NORAD_CAT_ID":55148,"ELEMENT_SET_NO":999,"REV_AT_EPOCH":14292,"BSTAR":-5.7599e-5,"MEAN_MOTION_DOT":-8.0e-8,"MEAN_MOTION_DDOT":0},{"OBJECT_NAME":"ONEWEB-0570","OBJECT_ID":"2023-004K","EPOCH":"2025-11-21T05:25:19.911360","MEAN_MOTION":13.18686787,"ECCENTRICITY":0.0001355,"INCLINATION":87.9197,"RA_OF_ASC_NODE":16.7931,"ARG_OF_PERICENTER":88.7442,"MEAN_ANOMALY":271.3846,"EPHEMERIS_TYPE":0,"CLASSIFICATION_TYPE":"U","NORAD_CAT_ID":55149,"ELEMENT_SET_NO":999,"REV_AT_EPOCH":14228,"BSTAR":-3.6653e-5,"MEAN_MOTION_DOT":-2.0e-8,"MEAN_MOTION_DDOT":0},{"OBJECT_NAME":"ONEWEB-0571","OBJECT_ID":"2023-004L","EPOCH":"2025-11-21T05:15:49.895136","MEAN_MOTION":13.18686227,"ECCENTRICITY":0.0002358,"INCLINATION":87.919,"RA_OF_ASC_NODE":16.7949,"ARG_OF_PERICENTER":66.9401,"MEAN_ANOMALY":293.198,"EPHEMERIS_TYPE":0,"CLASSIFICATION_TYPE":"U","NORAD_CAT_ID":55150,"ELEMENT_SET_NO":999,"REV_AT_EPOCH":14229,"BSTAR":9.6087e-5,"MEAN_MOTION_DOT":5.1e-7,"MEAN_MOTION_DDOT":0}]
